NORAD_CAT_ID,OBJECT_NAME,OBJECT_TYPE,EPOCH,MEAN_MOTION,ECCENTRICITY,INCLINATION,RA_OF_ASC_NODE,ARG_OF_PERICENTER,MEAN_ANOMALY,BSTAR,MEAN_MOTION_DOT,MEAN_MOTION_DDOT,TLE_LINE0,TLE_LINE1,TLE_LINE2,SEMIMAJOR_AXIS,PERIOD,APOGEE,PERIGEE,DECAYED
51141.0,STARLINK-3179,PAYLOAD,2022-07-22 05:51:54,15.08820377,0.0001915,53.219,133.7658,48.6493,311.4664,-4.500100000000001e-05,-1.004e-05,0.0,0 STARLINK-3179,1 51141U 22005AP  22203.24438421 -.00001004  00000-0 -45001-4 0  9999,2 51141  53.2190 133.7658 0001915  48.6493 311.4664 15.08820377 28496,6917.94,95.439,541.13,538.481,0.0
51141.0,STARLINK-3179,PAYLOAD,2022-07-23 05:42:40,15.08844344,0.0001851999999999,53.2181,129.3045,50.609,309.5066,0.00015057,2.109e-05,0.0,0 STARLINK-3179,1 51141U 22005AP  22204.23796518  .00002109  00000-0  15057-3 0  9995,2 51141  53.2181 129.3045 0001852  50.6090 309.5066 15.08844344 29757,6917.8669999999975,95.437,541.013,538.451,0.0
51141.0,STARLINK-3179,PAYLOAD,2022-07-23 20:01:08,15.08833696,0.0001831,53.218,126.6274,49.8278,310.2875,0.000245,3.613e-05,0.0,0 STARLINK-3179,1 51141U 22005AP  22204.83413018  .00003613  00000-0  24500-3 0  9996,2 51141  53.2180 126.6274 0001831  49.8278 310.2875 15.08833696 28737,6917.9,95.438,541.031,538.498,0.0
51141.0,STARLINK-3179,PAYLOAD,2022-07-24 03:58:05,15.08827688,0.000184,53.2183,125.1418,47.6753,312.4395,0.0001217,1.649e-05,0.0,0 STARLINK-3179,1 51141U 22005AP  22205.16533966  .00001649  00000-0  12170-3 0  9995,2 51141  53.2183 125.1418 0001840  47.6753 312.4395 15.08827688 29891,6917.918000000002,95.438,541.056,538.51,0.0
51141.0,STARLINK-3179,PAYLOAD,2022-07-24 11:55:00,15.08834012,0.0001826,53.2182,123.655,47.7282,312.3865,0.00012744,1.74e-05,0.0,0 STARLINK-3179,1 51141U 22005AP  22205.49653624  .00001740  00000-0  12744-3 0  9994,2 51141  53.2182 123.6550 0001826  47.7282 312.3865 15.08834012 28835,6917.899,95.438,541.0269999999998,538.5,0.0
51141.0,STARLINK-3179,PAYLOAD,2022-07-24 18:16:32,15.08844603,0.0001597,53.2182,122.4655,50.9188,309.1946,1.6248e-05,-2.9e-07,0.0,0 STARLINK-3179,1 51141U 22005AP  22205.76149111 -.00000029  00000-0  16248-4 0  9999,2 51141  53.2182 122.4655 0001597  50.9188 309.1946 15.08844603 28879,6917.866,95.437,540.836,538.627,0.0
51141.0,STARLINK-3179,PAYLOAD,2022-07-25 03:48:51,15.08848325,0.0001857,53.2198,120.6836,44.9068,315.2074,-0.00010999,-2.039e-05,0.0,0 STARLINK-3179,1 51141U 22005AP  22206.15893281 -.00002039  00000-0 -10999-3 0  9997,2 51141  53.2198 120.6836 0001857  44.9068 315.2074 15.08848325 28938,6917.855,95.437,541.005,538.435,0.0
51141.0,STARLINK-3179,PAYLOAD,2022-07-25 18:07:20,15.08834641,0.000193,53.22,118.008,30.9951,329.1155,5.6585e-06,-1.98e-06,0.0,0 STARLINK-3179,1 51141U 22005AP  22206.75509635 -.00000198  00000-0  56585-5 0  9996,2 51141  53.2200 118.0080 0001930  30.9951 329.1155 15.08834641 30137,6917.897,95.438,541.097,538.427,0.0
51141.0,STARLINK-3179,PAYLOAD,2022-07-26 03:39:38,15.0883878,0.0001918,53.2195,116.2235,45.5028,314.612,9.085e-05,1.158e-05,0.0,0 STARLINK-3179,1 51141U 22005AP  22207.15253146  .00001158  00000-0  90850-4 0  9992,2 51141  53.2195 116.2235 0001918  45.5028 314.6120 15.08838780 30190,6917.884,95.438,541.076,538.422,0.0
51141.0,STARLINK-3179,PAYLOAD,2022-07-26 17:58:06,15.08847954,0.000194,53.2191,113.5474,45.8374,314.2777,5.9094e-05,6.53e-06,0.0,0 STARLINK-3179,1 51141U 22005AP  22207.74868481  .00000653  00000-0  59094-4 0  9995,2 51141  53.2191 113.5474 0001940  45.8374 314.2777 15.08847954 30280,6917.856,95.437,541.063,538.379,0.0
51141.0,STARLINK-3179,PAYLOAD,2022-07-26 21:08:52,15.08864242,0.0002360999999999,53.2189,112.952,53.9575,306.1635,-0.00012174,-2.227e-05,0.0,0 STARLINK-3179,1 51141U 22005AP  22207.88116038 -.00002227  00000-0 -12174-3 0  9992,2 51141  53.2189 112.9520 0002361  53.9575 306.1635 15.08864242 29193,6917.806,95.436,541.305,538.038,0.0
51141.0,STARLINK-3179,PAYLOAD,2022-07-27 03:30:25,15.08843115,0.0001927,53.2189,111.7635,47.3603,312.7551,4.3375e-05,4.02e-06,0.0,0 STARLINK-3179,1 51141U 22005AP  22208.14612694  .00000402  00000-0  43375-4 0  9990,2 51141  53.2189 111.7635 0001927  47.3603 312.7551 15.08843115 29234,6917.871,95.437,541.069,538.403,0.0
51141.0,STARLINK-3179,PAYLOAD,2022-07-28 09:42:45,15.0883962,0.0001923,53.2193,106.1129,49.5531,310.5628,-1.9745e-05,-6.02e-06,0.0,0 STARLINK-3179,1 51141U 22005AP  22209.40469048 -.00000602  00000-0 -19745-4 0  9991,2 51141  53.2193 106.1129 0001923  49.5531 310.5628 15.08839620 29423,6917.882,95.438,541.077,538.4159999999998,0.0
51141.0,STARLINK-3179,PAYLOAD,2022-07-28 17:39:40,15.08841971,0.0002016,53.2185,104.6243,55.9499,304.1685,-6.6248e-05,-1.342e-05,0.0,0 STARLINK-3179,1 51141U 22005AP  22209.73589058 -.00001342  00000-0 -66248-4 0  9993,2 51141  53.2185 104.6243 0002016  55.9499 304.1685 15.08841971 30585,6917.874,95.437,541.134,538.345,0.0
51141.0,STARLINK-3179,PAYLOAD,2022-07-29 09:33:32,15.08836929,0.0001940999999999,53.2195,101.6534,51.3395,308.7771,4.3256e-05,4e-06,0.0,0 STARLINK-3179,1 51141U 22005AP  22210.39829001  .00000400  00000-0  43256-4 0  9998,2 51141  53.2195 101.6534 0001941  51.3395 308.7771 15.08836929 29577,6917.89,95.438,541.0980000000002,538.4119999999998,0.0
51141.0,STARLINK-3179,PAYLOAD,2022-07-29 17:30:27,15.0884356,0.0001921,53.2192,100.166,54.2131,305.9039,2.3044e-05,7.9e-07,0.0,0 STARLINK-3179,1 51141U 22005AP  22210.72948639  .00000079  00000-0  23044-4 0  9999,2 51141  53.2192 100.1660 0001921  54.2131 305.9039 15.08843560 29627,6917.87,95.437,541.063,538.406,0.0
51141.0,STARLINK-3179,PAYLOAD,2022-07-29 23:52:00,15.08843123,0.0001844999999999,53.2195,98.9768,61.2969,298.8208,1.4573e-05,-5.6e-07,0.0,0 STARLINK-3179,1 51141U 22005AP  22210.99444660 -.00000056  00000-0  14573-4 0  9996,2 51141  53.2195  98.9768 0001845  61.2969 298.8208 15.08843123 30776,6917.871,95.437,541.012,538.4590000000002,0.0
51141.0,STARLINK-3179,PAYLOAD,2022-07-30 09:24:19,15.08831501,0.0002046999999999,53.2185,97.1927,56.9618,303.1571,-5.6221e-05,-1.183e-05,0.0,0 STARLINK-3179,1 51141U 22005AP  22211.39189716 -.00001183  00000-0 -56221-4 0  9998,2 51141  53.2185  97.1927 0002047  56.9618 303.1571 15.08831501 30837,6917.906,95.438,541.187,538.355,0.0
51141.0,STARLINK-3179,PAYLOAD,2022-07-30 15:45:52,15.08830356,0.0001966,53.219,96.003,54.978,305.1397,1.2505e-05,-8.9e-07,0.0,0 STARLINK-3179,1 51141U 22005AP  22211.65685728 -.00000089  00000-0  12505-4 0  9991,2 51141  53.2190  96.0030 0001966  54.9780 305.1397 15.08830356 29768,6917.91,95.438,541.135,538.415,0.0
51141.0,STARLINK-3179,PAYLOAD,2022-07-31 09:15:06,15.08836268,0.0001969,53.2189,92.7322,55.4309,304.6868,1.2796e-05,-8.5e-07,0.0,0 STARLINK-3179,1 51141U 22005AP  22212.38549620 -.00000085  00000-0  12796-4 0  9990,2 51141  53.2189  92.7322 0001969  55.4309 304.6868 15.08836268 29876,6917.892,95.438,541.119,538.395,0.0
51141.0,STARLINK-3179,PAYLOAD,2022-07-31 17:12:02,15.08839841,0.0002004,53.219,91.245,55.4472,304.6709,2.542e-05,1.16e-06,0.0,0 STARLINK-3179,1 51141U 22005AP  22212.71669408  .00000116  00000-0  25420-4 0  9996,2 51141  53.2190  91.2450 0002004  55.4472 304.6709 15.08839841 29926,6917.880999999999,95.438,541.132,538.36,0.0
51141.0,STARLINK-3179,PAYLOAD,2022-08-01 01:08:57,15.08844384,0.0002114,53.2192,89.7583,62.7488,297.3719,1.354e-06,-2.67e-06,0.0,0 STARLINK-3179,1 51141U 22005AP  22213.04789217 -.00000267  00000-0  13540-5 0  9993,2 51141  53.2192  89.7583 0002114  62.7488 297.3719 15.08844384 31084,6917.8669999999975,95.437,541.194,538.27,0.0
51141.0,STARLINK-3179,PAYLOAD,2022-08-01 09:05:53,15.08839381,0.0002137,53.2193,88.2717,58.6726,301.4475,0.00012967,1.776e-05,0.0,0 STARLINK-3179,1 51141U 22005AP  22213.37909133  .00001776  00000-0  12967-3 0  9995,2 51141  53.2193  88.2717 0002137  58.6726 301.4475 15.08839381 30022,6917.882,95.438,541.226,538.269,0.0
51141.0,STARLINK-3179,PAYLOAD,2022-08-01 21:48:58,15.08846126,0.0002150999999999,53.2193,85.8929,59.8139,300.3066,0.00013021,1.785e-05,0.0,0 STARLINK-3179,1 51141U 22005AP  22213.90900647  .00001785  00000-0  13021-3 0  9997,2 51141  53.2193  85.8929 0002151  59.8139 300.3066 15.08846126 30105,6917.861999999999,95.437,541.215,538.239,0.0
51141.0,STARLINK-3179,PAYLOAD,2022-08-02 08:56:41,15.08833427,0.0002142,53.2192,83.8115,60.0547,300.0658,-5.6997000000000015e-06,-3.79e-06,0.0,0 STARLINK-3179,1 51141U 22005AP  22214.37269876 -.00000379  00000-0 -56997-5 0  9992,2 51141  53.2192  83.8115 0002142  60.0547 300.0658 15.08833427 31280,6917.9,95.438,541.247,538.284,0.0
51141.0,STARLINK-3179,PAYLOAD,2022-08-03 00:50:32,15.08841283,0.0002246,53.2191,80.8378,60.1534,299.9682,8.6343e-06,-1.51e-06,0.0,0 STARLINK-3179,1 51141U 22005AP  22215.03509345 -.00000151  00000-0  86343-5 0  9999,2 51141  53.2191  80.8378 0002246  60.1534 299.9682 15.08841283 31382,6917.876,95.437,541.295,538.188,0.0
51141.0,STARLINK-3179,PAYLOAD,2022-08-03 10:22:50,15.08846415,0.0002165,53.219,79.0537,62.1054,298.0158,2.9613000000000013e-05,1.83e-06,0.0,0 STARLINK-3179,1 51141U 22005AP  22215.43252830  .00000183  00000-0  29613-4 0  9997,2 51141  53.2190  79.0537 0002165  62.1054 298.0158 15.08846415 30331,6917.861,95.437,541.2230000000002,538.2280000000002,0.0
51141.0,STARLINK-3179,PAYLOAD,2022-08-03 16:44:22,15.088497899999998,0.0002188,53.2191,77.8647,60.6654,299.4556,2.8093e-05,1.59e-06,0.0,0 STARLINK-3179,1 51141U 22005AP  22215.69748509  .00000159  00000-0  28093-4 0  9992,2 51141  53.2191  77.8647 0002188  60.6654 299.4556 15.08849790 31487,6917.85,95.437,541.229,538.202,0.0
51141.0,STARLINK-3179,PAYLOAD,2022-08-04 00:41:18,15.08842228,0.000251,53.2189,76.38,48.678,311.4428,-3.6462e-05,-8.69e-06,0.0,0 STARLINK-3179,1 51141U 22005AP  22216.02869196 -.00000869  00000-0 -36462-4 0  9995,2 51141  53.2189  76.3800 0002510  48.6780 311.4428 15.08842228 30429,6917.874,95.437,541.475,538.002,0.0
